start=new Date('2022-08-30T00:00:00.000Z').valueOf();
sats=[{"LAUNCH_DATE":"2020-04-22","EPOCH":"2022-08-29T19:13:18.060672","RA_OF_ASC_NODE":"128.1894","MEAN_MOTION_DDOT":"0.0000000000000","OBJECT_TYPE":"PAYLOAD","NORAD_CAT_ID":"45546","SEMIMAJOR_AXIS":"6925.374","PERIAPSIS":"546.215","REV_AT_EPOCH":"13097","BSTAR":"0.00001897900000","MEAN_MOTION_DOT":"0.00000001","OBJECT_ID":"2020-025R","PERIOD":"95.593","COUNTRY_CODE":"US","TIME_SYSTEM":"UTC","CLASSIFICATION_TYPE":"U","APOAPSIS":"548.263","INCLINATION":"53.0557","FILE":"3551093","SITE":"AFETR","TLE_LINE1":"1 45546U 20025R   22241.80090348  .00000001  00000-0  18979-4 0  9995","MEAN_MOTION":"15.06391729","DECAY_DATE":null,"EPHEMERIS_TYPE":"0","CENTER_NAME":"EARTH","ELEMENT_SET_NO":"999","MEAN_ELEMENT_THEORY":"SGP4","REF_FRAME":"TEME","ECCENTRICITY":"0.00014790","GP_ID":"211284339","TLE_LINE2":"2 45546  53.0557 128.1894 0001479  93.6335 266.4823 15.06391729130978","MEAN_ANOMALY":"266.4823","ARG_OF_PERICENTER":"93.6335","OBJECT_NAME":"STARLINK-1375","RCS_SIZE":"LARGE"},{"OBJECT_TYPE":"PAYLOAD","NORAD_CAT_ID":"45547","LAUNCH_DATE":"2020-04-22","EPOCH":"2022-08-29T17:32:26.941632","RA_OF_ASC_NODE":"128.5042","MEAN_MOTION_DDOT":"0.0000000000000","OBJECT_ID":"2020-025S","PERIAPSIS":"546.297","SEMIMAJOR_AXIS":"6925.398","MEAN_MOTION_DOT":"0.00000602","REV_AT_EPOCH":"13097","BSTAR":"0.00005932200000","TIME_SYSTEM":"UTC","PERIOD":"95.593","COUNTRY_CODE":"US","APOAPSIS":"548.230","CLASSIFICATION_TYPE":"U","INCLINATION":"53.0548","FILE":"3551093","EPHEMERIS_TYPE":"0","CENTER_NAME":"EARTH","MEAN_ELEMENT_THEORY":"SGP4","REF_FRAME":"TEME","ELEMENT_SET_NO":"999","SITE":"AFETR","MEAN_MOTION":"15.06383744","DECAY_DATE":null,"TLE_LINE1":"1 45547U 20025S   22241.73086738  .00000602  00000-0  59322-4 0  9990","ECCENTRICITY":"0.00013960","GP_ID":"211285089","TLE_LINE2":"2 45547  53.0548 128.5042 0001396  73.6008 286.5135 15.06383744130978","RCS_SIZE":"LARGE","OBJECT_NAME":"STARLINK-1377","MEAN_ANOMALY":"286.5135","ARG_OF_PERICENTER":"73.6008"},{"OBJECT_ID":"2020-025T","MEAN_MOTION_DOT":"0.00003313","REV_AT_EPOCH":"13033","BSTAR":"0.00024118000000","PERIAPSIS":"546.157","SEMIMAJOR_AXIS":"6925.334","OBJECT_TYPE":"PAYLOAD","NORAD_CAT_ID":"45548","MEAN_MOTION_DDOT":"0.0000000000000","RA_OF_ASC_NODE":"129.8732","LAUNCH_DATE":"2020-04-22","EPOCH":"2022-08-29T10:11:53.760192","APOAPSIS":"548.241","CLASSIFICATION_TYPE":"U","TIME_SYSTEM":"UTC","COUNTRY_CODE":"US","PERIOD":"95.592","MEAN_ELEMENT_THEORY":"SGP4","REF_FRAME":"TEME","ELEMENT_SET_NO":"999","CENTER_NAME":"EARTH","EPHEMERIS_TYPE":"0","DECAY_DATE":null,"MEAN_MOTION":"15.06404680","TLE_LINE1":"1 45548U 20025T   22241.42492778  .00003313  00000-0  24118-3 0  9998","SITE":"AFETR","FILE":"3550883","INCLINATION":"53.0532","RCS_SIZE":"LARGE","OBJECT_NAME":"STARLINK-1378","ARG_OF_PERICENTER":"75.8675","MEAN_ANOMALY":"284.2481","TLE_LINE2":"2 45548  53.0532 129.8732 0001505  75.8675 284.2481 15.06404680130330","ECCENTRICITY":"0.00015050","GP_ID":"211260090"},{"GP_ID":"211252257","ECCENTRICITY":"0.00015250","TLE_LINE2":"2 45550  53.0526 131.2661 0001525  81.6602 278.4560 15.06401162130864","OBJECT_NAME":"STARLINK-1390","ARG_OF_PERICENTER":"81.6602","MEAN_ANOMALY":"278.4560","RCS_SIZE":"LARGE","INCLINATION":"53.0526","FILE":"3550737","SITE":"AFETR","MEAN_MOTION":"15.06401162","DECAY_DATE":null,"TLE_LINE1":"1 45550U 20025V   22241.11067417  .00000857  00000-0  76443-4 0  9994","CENTER_NAME":"EARTH","EPHEMERIS_TYPE":"0","REF_FRAME":"TEME","MEAN_ELEMENT_THEORY":"SGP4","ELEMENT_SET_NO":"999","PERIOD":"95.592","COUNTRY_CODE":"US","TIME_SYSTEM":"UTC","CLASSIFICATION_TYPE":"U","APOAPSIS":"548.266","EPOCH":"2022-08-29T02:39:22.248288","LAUNCH_DATE":"2020-04-22","RA_OF_ASC_NODE":"131.2661","MEAN_MOTION_DDOT":"0.0000000000000","NORAD_CAT_ID":"45550","OBJECT_TYPE":"PAYLOAD","PERIAPSIS":"546.154","SEMIMAJOR_AXIS":"6925.345","MEAN_MOTION_DOT":"0.00000857","REV_AT_EPOCH":"13086","BSTAR":"0.00007644300000","OBJECT_ID":"2020-025V"},{"MEAN_ELEMENT_THEORY":"SGP4","REF_FRAME":"TEME","ELEMENT_SET_NO":"999","EPHEMERIS_TYPE":"0","CENTER_NAME":"EARTH","MEAN_MOTION":"15.06397950","DECAY_DATE":null,"TLE_LINE1":"1 45551U 20025W   22241.77693625  .00000963  00000-0  83525-4 0  9990","SITE":"AFETR","FILE":"3551093","INCLINATION":"53.0557","RCS_SIZE":"LARGE","OBJECT_NAME":"STARLINK-1294","MEAN_ANOMALY":"281.5050","ARG_OF_PERICENTER":"78.6115","TLE_LINE2":"2 45551  53.0557 108.2857 0001568  78.6115 281.5050 15.06397950131254","GP_ID":"211284839","ECCENTRICITY":"0.00015680","OBJECT_ID":"2020-025W","MEAN_MOTION_DOT":"0.00000963","REV_AT_EPOCH":"13125","BSTAR":"0.00008352500000","PERIAPSIS":"546.134","SEMIMAJOR_AXIS":"6925.355","NORAD_CAT_ID":"45551","OBJECT_TYPE":"PAYLOAD","MEAN_MOTION_DDOT":"0.0000000000000","LAUNCH_DATE":"2020-04-22","RA_OF_ASC_NODE":"108.2857","EPOCH":"2022-08-29T18:38:47.292000","APOAPSIS":"548.306","CLASSIFICATION_TYPE":"U","TIME_SYSTEM":"UTC","COUNTRY_CODE":"US","PERIOD":"95.592"},{"APOAPSIS":"548.150","CLASSIFICATION_TYPE":"U","TIME_SYSTEM":"UTC","COUNTRY_CODE":"US","PERIOD":"95.593","OBJECT_ID":"2020-025Y","BSTAR":"-0.00004668600000","REV_AT_EPOCH":"12995","MEAN_MOTION_DOT":"-0.00000976","SEMIMAJOR_AXIS":"6925.384","PERIAPSIS":"546.347","NORAD_CAT_ID":"45553","OBJECT_TYPE":"PAYLOAD","MEAN_MOTION_DDOT":"0.0000000000000","LAUNCH_DATE":"2020-04-22","RA_OF_ASC_NODE":"108.5214","EPOCH":"2022-08-29T17:19:10.878816","RCS_SIZE":"LARGE","ARG_OF_PERICENTER":"71.6493","MEAN_ANOMALY":"288.4638","OBJECT_NAME":"STARLINK-1323","TLE_LINE2":"2 45553  53.0555 108.5214 0001302  71.6493 288.4638 15.06388592129956","GP_ID":"211284590","ECCENTRICITY":"0.00013020","ELEMENT_SET_NO":"999","MEAN_ELEMENT_THEORY":"SGP4","REF_FRAME":"TEME","EPHEMERIS_TYPE":"0","CENTER_NAME":"EARTH","TLE_LINE1":"1 45553U 20025Y   22241.72165369 -.00000976  00000-0 -46686-4 0  9999","MEAN_MOTION":"15.06388592","DECAY_DATE":null,"SITE":"AFETR","FILE":"3551093","INCLINATION":"53.0555"},{"TLE_LINE2":"2 45554  53.0550 108.2560 0001756  74.0850 286.0332 15.06394122130649","ECCENTRICITY":"0.00017560","GP_ID":"211259274","OBJECT_NAME":"STARLINK-1325","MEAN_ANOMALY":"286.0332","ARG_OF_PERICENTER":"74.0850","RCS_SIZE":"LARGE","FILE":"3550844","INCLINATION":"53.0550","DECAY_DATE":null,"MEAN_MOTION":"15.06394122","TLE_LINE1":"1 45554U 20025Z   22241.77968230  .00000177  00000-0  30782-4 0  9994","SITE":"AFETR","MEAN_ELEMENT_THEORY":"SGP4","REF_FRAME":"TEME","ELEMENT_SET_NO":"999","EPHEMERIS_TYPE":"0","CENTER_NAME":"EARTH","COUNTRY_CODE":"US","PERIOD":"95.593","TIME_SYSTEM":"UTC","CLASSIFICATION_TYPE":"U","APOAPSIS":"548.448","MEAN_MOTION_DDOT":"0.0000000000000","RA_OF_ASC_NODE":"108.2560","LAUNCH_DATE":"2020-04-22","EPOCH":"2022-08-29T18:42:44.550720","NORAD_CAT_ID":"45554","OBJECT_TYPE":"PAYLOAD","MEAN_MOTION_DOT":"0.00000177","BSTAR":"0.00003078200000","REV_AT_EPOCH":"13064","PERIAPSIS":"546.015","SEMIMAJOR_AXIS":"6925.367","OBJECT_ID":"2020-025Z"},{"RCS_SIZE":"LARGE","MEAN_ANOMALY":"285.8825","ARG_OF_PERICENTER":"74.2308","OBJECT_NAME":"STARLINK-1327","ECCENTRICITY":"0.00013060","GP_ID":"211284089","TLE_LINE2":"2 45555  53.0556 108.4326 0001306  74.2308 285.8825 15.06404771131242","CENTER_NAME":"EARTH","EPHEMERIS_TYPE":"0","ELEMENT_SET_NO":"999","MEAN_ELEMENT_THEORY":"SGP4","REF_FRAME":"TEME","SITE":"AFETR","TLE_LINE1":"1 45555U 20025AA  22241.74376599 -.00001208  00000-0 -62211-4 0  9993","MEAN_MOTION":"15.06404771","DECAY_DATE":null,"INCLINATION":"53.0556","FILE":"3551093","APOAPSIS":"548.103","CLASSIFICATION_TYPE":"U","TIME_SYSTEM":"UTC","PERIOD":"95.592","COUNTRY_CODE":"US","OBJECT_ID":"2020-025AA","SEMIMAJOR_AXIS":"6925.334","PERIAPSIS":"546.294","REV_AT_EPOCH":"13124","BSTAR":"-0.00006221100000","MEAN_MOTION_DOT":"-0.00001208","OBJECT_TYPE":"PAYLOAD","NORAD_CAT_ID":"45555","RA_OF_ASC_NODE":"108.4326","LAUNCH_DATE":"2020-04-22","EPOCH":"2022-08-29T17:51:01.381536","MEAN_MOTION_DDOT":"0.0000000000000"},{"INCLINATION":"53.0536","FILE":"3551093","EPHEMERIS_TYPE":"0","CENTER_NAME":"EARTH","ELEMENT_SET_NO":"999","MEAN_ELEMENT_THEORY":"SGP4","REF_FRAME":"TEME","SITE":"AFETR","TLE_LINE1":"1 45556U 20025AB  22241.65161450  .00000048  00000-0  22155-4 0  9994","DECAY_DATE":null,"MEAN_MOTION":"15.06391964","GP_ID":"211284340","ECCENTRICITY":"0.00017750","TLE_LINE2":"2 45556  53.0536 108.8532 0001775  71.7498 288.3684 15.06391964131235","RCS_SIZE":"LARGE","MEAN_ANOMALY":"288.3684","ARG_OF_PERICENTER":"71.7498","OBJECT_NAME":"STARLINK-1334","OBJECT_TYPE":"PAYLOAD","NORAD_CAT_ID":"45556","LAUNCH_DATE":"2020-04-22","RA_OF_ASC_NODE":"108.8532","EPOCH":"2022-08-29T15:38:19.492800","MEAN_MOTION_DDOT":"0.0000000000000","OBJECT_ID":"2020-025AB","SEMIMAJOR_AXIS":"6925.373","PERIAPSIS":"546.009","BSTAR":"0.00002215500000","REV_AT_EPOCH":"13123","MEAN_MOTION_DOT":"0.00000048","TIME_SYSTEM":"UTC","PERIOD":"95.593","COUNTRY_CODE":"US","APOAPSIS":"548.467","CLASSIFICATION_TYPE":"U"},{"TIME_SYSTEM":"UTC","PERIOD":"95.593","COUNTRY_CODE":"US","APOAPSIS":"548.300","CLASSIFICATION_TYPE":"U","OBJECT_TYPE":"PAYLOAD","NORAD_CAT_ID":"45557","RA_OF_ASC_NODE":"107.6355","LAUNCH_DATE":"2020-04-22","EPOCH":"2022-08-29T22:11:06.884736","MEAN_MOTION_DDOT":"0.0000000000000","OBJECT_ID":"2020-025AC","SEMIMAJOR_AXIS":"6925.371","PERIAPSIS":"546.172","BSTAR":"-0.00003469800000","REV_AT_EPOCH":"13127","MEAN_MOTION_DOT":"-0.00000798","GP_ID":"211285090","ECCENTRICITY":"0.00015360","TLE_LINE2":"2 45557  53.0560 107.6355 0001536  87.5150 272.6014 15.06392663131272","RCS_SIZE":"LARGE","ARG_OF_PERICENTER":"87.5150","MEAN_ANOMALY":"272.6014","OBJECT_NAME":"STARLINK-1336","INCLINATION":"53.0560","FILE":"3551093","EPHEMERIS_TYPE":"0","CENTER_NAME":"EARTH","ELEMENT_SET_NO":"999","MEAN_ELEMENT_THEORY":"SGP4","REF_FRAME":"TEME","SITE":"AFETR","TLE_LINE1":"1 45557U 20025AC  22241.92438524 -.00000798  00000-0 -34698-4 0  9993","MEAN_MOTION":"15.06392663","DECAY_DATE":null}];
